{
"type": "FeatureCollection",
"name": "mappluto_19v1_block2472_lots_2_3_10_21",
"crs": { "type": "name", "properties": { "name": "urn:ogc:def:crs:EPSG::2263" } },
"features": [
{ "type": "Feature", "properties": { "BBL": 3024720002.0, "Block": 2472.0, "Lot": 2, "LotArea": 9565.0, "Shape_Area": 9625.5941352900008, "geometry_area_sqft": 9625.5941352881491 }, "geometry": { "type": "Polygon", "coordinates": [ [ [ 994872.666734844446182, 206882.744748845696449 ], [ 994865.977115675806999, 206881.890419840812683 ], [ 994785.128196001052856, 206871.56399692595005 ], [ 994851.627078756690025, 207017.294676586985588 ], [ 994851.75732783973217, 207017.580109089612961 ], [ 994852.681538596749306, 207017.69821909070015 ], [ 994903.407815083861351, 207024.177208751440048 ], [ 994886.802533343434334, 206987.786861583590508 ], [ 994888.171297013759613, 206987.961730003356934 ], [ 994883.907854095101357, 206978.618572846055031 ], [ 994892.621747419238091, 206920.457599923014641 ], [ 994882.658512756228447, 206898.623326003551483 ], [ 994880.153268426656723, 206899.151540175080299 ], [ 994872.666734844446182, 206882.744748845696449 ] ] ] } },
{ "type": "Feature", "properties": { "BBL": 3024720010.0, "Block": 2472.0, "Lot": 10, "LotArea": 3153.0, "Shape_Area": 3230.14826791, "geometry_area_sqft": 3230.1482679098845 }, "geometry": { "type": "Polygon", "coordinates": [ [ [ 995314.994262263178825, 206969.062489584088326 ], [ 995284.857839584350586, 206965.213415920734406 ], [ 995271.420530512928963, 207070.913335755467415 ], [ 995301.426704093813896, 207074.74600525200367 ], [ 995314.994262263178825, 206969.062489584088326 ] ] ] } },
{ "type": "Feature", "properties": { "BBL": 3024720003.0, "Block": 2472.0, "Lot": 3, "LotArea": 7308.0, "Shape_Area": 6833.1355380200002, "geometry_area_sqft": 6833.1355380192399 }, "geometry": { "type": "Polygon", "coordinates": [ [ [ 994903.407815083861351, 207024.177208751440048 ], [ 994852.681538596749306, 207017.69821909070015 ], [ 994851.75732783973217, 207017.580109089612961 ], [ 994884.0479456782341, 207088.343747094273567 ], [ 994950.808967009186745, 207186.353393584489822 ], [ 994977.698020845651627, 207189.472809925675392 ], [ 994958.391300916671753, 207161.129362672567368 ], [ 994957.413612589240074, 207160.670702174305916 ], [ 994949.22760534286499, 207156.277994424104691 ], [ 994960.377189338207245, 207135.50047692656517 ], [ 994955.843077674508095, 207132.570036590099335 ], [ 994951.842757597565651, 207128.944387674331665 ], [ 994948.482200011610985, 207124.719002425670624 ], [ 994945.849659338593483, 207120.005757257342339 ], [ 994936.517328917980194, 207099.554354593157768 ], [ 994941.221059679985046, 207097.408033415675163 ], [ 994931.328362926840782, 207075.728614836931229 ], [ 994927.689262583851814, 207077.389044582843781 ], [ 994903.407815083861351, 207024.177208751440048 ] ] ] } },
{ "type": "Feature", "properties": { "BBL": 3024720021.0, "Block": 2472.0, "Lot": 21, "LotArea": 160511.0, "Shape_Area": 103390.866584, "geometry_area_sqft": 103390.86658413708 }, "geometry": { "type": "Polygon", "coordinates": [ [ [ 995255.998645335435867, 207173.84685692191124 ], [ 995271.420530512928963, 207070.913335755467415 ], [ 995284.857839584350586, 206965.213415920734406 ], [ 995288.610128670930862, 206935.871939167380333 ], [ 994872.666734844446182, 206882.744748845696449 ], [ 994880.153268426656723, 206899.151540175080299 ], [ 994882.658512756228447, 206898.623326003551483 ], [ 994892.621747419238091, 206920.457599923014641 ], [ 994883.907854095101357, 206978.618572846055031 ], [ 994888.171297013759613, 206987.961730003356934 ], [ 994886.802533343434334, 206987.786861583590508 ], [ 994903.407815083861351, 207024.177208751440048 ], [ 994927.689262583851814, 207077.389044582843781 ], [ 994931.328362926840782, 207075.728614836931229 ], [ 994941.221059679985046, 207097.408033415675163 ], [ 994936.517328917980194, 207099.554354593157768 ], [ 994945.849659338593483, 207120.005757257342339 ], [ 994948.482200011610985, 207124.719002425670624 ], [ 994951.842757597565651, 207128.944387674331665 ], [ 994955.843077674508095, 207132.570036590099335 ], [ 994960.377189338207245, 207135.50047692656517 ], [ 994949.22760534286499, 207156.277994424104691 ], [ 994957.413612589240074, 207160.670702174305916 ], [ 994958.391300916671753, 207161.129362672567368 ], [ 994977.698020845651627, 207189.472809925675392 ], [ 994983.12222258746624, 207190.102073758840561 ], [ 995282.860796347260475, 207224.872017338871956 ], [ 995250.920899584889412, 207214.583652094006538 ], [ 995255.998645335435867, 207173.84685692191124 ] ] ] } }
]
}
