{
"type": "FeatureCollection",
"name": "mappluto_18v1_1_block2472_lots_2_21",
"crs": { "type": "name", "properties": { "name": "urn:ogc:def:crs:EPSG::2263" } },
"features": [
{ "type": "Feature", "properties": { "BBL": 3024720002.0, "Block": 2472.0, "Lot": 2, "LotArea": 64068.0, "Shape_Area": 63352.602286200003 }, "geometry": { "type": "Polygon", "coordinates": [ [ [ 995284.8577880859375, 206965.21343994140625 ], [ 995288.6102294921875, 206935.87200927734375 ], [ 994785.12823486328125, 206871.56402587890625 ], [ 994851.627197265625, 207017.2947998046875 ], [ 995271.42059326171875, 207070.91339111328125 ], [ 995284.8577880859375, 206965.21343994140625 ] ] ] } },
{ "type": "Feature", "properties": { "BBL": 3024720021.0, "Block": 2472.0, "Lot": 21, "LotArea": 58823.0, "Shape_Area": 56496.858406400002 }, "geometry": { "type": "Polygon", "coordinates": [ [ [ 995255.99859619140625, 207173.84698486328125 ], [ 995271.42059326171875, 207070.91339111328125 ], [ 994851.627197265625, 207017.2947998046875 ], [ 994884.04803466796875, 207088.34381103515625 ], [ 994950.80902099609375, 207186.3533935546875 ], [ 995282.86083984375, 207224.87200927734375 ], [ 995250.9210205078125, 207214.58380126953125 ], [ 995255.99859619140625, 207173.84698486328125 ] ] ] } }
]
}
