{
"type": "FeatureCollection",
"name": "mappluto_20v5_block2472_lot21",
"crs": { "type": "name", "properties": { "name": "urn:ogc:def:crs:EPSG::2263" } },
"features": [
{ "type": "Feature", "properties": { "version": "20v5", "bbl": "3024720021" }, "geometry": { "type": "Polygon", "coordinates": [ [ [ 994872.666758060455322, 206882.744696617126465 ], [ 994880.153285980224609, 206899.151487350463867 ], [ 994882.658528327941895, 206898.623262405395508 ], [ 994892.621768951416016, 206920.457540988922119 ], [ 994883.907857894897461, 206978.618507862091064 ], [ 994888.171299457550049, 206987.961686134338379 ], [ 994886.802547931671143, 206987.786820411682129 ], [ 994903.407827377319336, 207024.177151679992676 ], [ 994927.689282894134521, 207077.38899040222168 ], [ 994931.328364849090576, 207075.728572368621826 ], [ 994941.221074104309082, 207097.407979965209961 ], [ 994936.517343521118164, 207099.55431604385376 ], [ 994945.849670886993408, 207120.005699634552002 ], [ 994948.482260227203369, 207124.719092845916748 ], [ 994951.842904090881348, 207128.944282054901123 ], [ 994955.843056678771973, 207132.569921970367432 ], [ 994960.377194404602051, 207135.500426769256592 ], [ 994949.227627277374268, 207156.277950286865234 ], [ 994957.413618564605713, 207160.67065954208374 ], [ 994958.39130687713623, 207161.129297733306885 ], [ 994977.698030948638916, 207189.472750663757324 ], [ 994983.122226238250732, 207190.102017879486084 ], [ 995282.860795974731445, 207224.871952056884766 ], [ 995250.920903205871582, 207214.58360767364502 ], [ 995255.998658657073975, 207173.846805572509766 ], [ 995271.42053747177124, 207070.913283348083496 ], [ 995284.857839584350586, 206965.213362693786621 ], [ 995288.610156059265137, 206935.871891021728516 ], [ 994872.666758060455322, 206882.744696617126465 ] ] ] } }
]
}
