{
"type": "FeatureCollection",
"name": "mappluto_20v1_block2472_lot21",
"crs": { "type": "name", "properties": { "name": "urn:ogc:def:crs:EPSG::2263" } },
"features": [
{ "type": "Feature", "properties": { "version": "20v1", "bbl": "3024720021" }, "geometry": { "type": "Polygon", "coordinates": [ [ [ 995255.998645335435867, 207173.84685692191124 ], [ 995271.420530512928963, 207070.913335755467415 ], [ 995284.857839584350586, 206965.213415920734406 ], [ 995288.610128670930862, 206935.871939167380333 ], [ 994872.666734844446182, 206882.744748845696449 ], [ 994880.153268426656723, 206899.151540175080299 ], [ 994882.658512756228447, 206898.623326003551483 ], [ 994892.621747419238091, 206920.457599923014641 ], [ 994883.907854095101357, 206978.618572846055031 ], [ 994888.171297013759613, 206987.961730003356934 ], [ 994886.802533343434334, 206987.786861583590508 ], [ 994903.407815083861351, 207024.177208751440048 ], [ 994927.689262583851814, 207077.389044582843781 ], [ 994931.328362926840782, 207075.728614836931229 ], [ 994941.221059679985046, 207097.408033415675163 ], [ 994936.517328917980194, 207099.554354593157768 ], [ 994945.849659338593483, 207120.005757257342339 ], [ 994948.482200011610985, 207124.719002425670624 ], [ 994951.842757597565651, 207128.944387674331665 ], [ 994955.843077674508095, 207132.570036590099335 ], [ 994960.377189338207245, 207135.50047692656517 ], [ 994949.22760534286499, 207156.277994424104691 ], [ 994957.413612589240074, 207160.670702174305916 ], [ 994958.391300916671753, 207161.129362672567368 ], [ 994977.698020845651627, 207189.472809925675392 ], [ 994983.12222258746624, 207190.102073758840561 ], [ 995282.860796347260475, 207224.872017338871956 ], [ 995250.920899584889412, 207214.583652094006538 ], [ 995255.998645335435867, 207173.84685692191124 ] ] ] } }
]
}
