{"type":"FeatureCollection","crs":{"type":"name","properties":{"name":"EPSG:2263"}},"features":[{"type":"Feature","geometry":{"type":"Polygon","coordinates":[[[997496.9061669,199995.152196658],[997466.005174861,199957.613636626],[997387.089718794,200021.576580693],[997444.485750842,200091.300740754],[997496.9061669,199995.152196658]]]},"properties":{"BBL":"3023150133"}},{"type":"Feature","geometry":{"type":"Polygon","coordinates":[[[1017217.31047327,186813.638008386],[1017231.83271328,186736.869816324],[1017126.82183318,186697.06578427],[1017107.95821716,186796.784696374],[1017210.33792925,186816.981560409],[1017216.45024926,186818.1871924],[1017217.31047327,186813.638008386]]]},"properties":{"BBL":"3039580049"}},{"type":"Feature","geometry":{"type":"Polygon","coordinates":[[[993056.168626757,150210.707478299],[993026.459826742,150040.524054143],[993021.300914725,150010.970646114],[993020.744690733,150007.784086108],[992821.153778536,150041.638742134],[992856.577714582,150244.562198338],[993056.168626757,150210.707478299]]]},"properties":{"BBL":"3072740025"}},{"type":"Feature","geometry":{"type":"Polygon","coordinates":[[[1014316.09082257,175743.422254069],[1014336.67168658,175719.811886056],[1014420.91571866,175623.167213964],[1014282.04352654,175503.281773852],[1014178.93651843,175624.733485974],[1014247.99149449,175683.462190013],[1014306.09555856,175754.889006076],[1014316.09082257,175743.422254069]]]},"properties":{"BBL":"3082350342"}},{"type":"Feature","geometry":{"type":"Polygon","coordinates":[[[1014550.56935078,175442.353773801],[1014425.45965466,175334.349613695],[1014366.69523861,175403.569069749],[1014366.11251861,175404.255341759],[1014491.22240672,175512.260013869],[1014550.56935078,175442.353773801]]]},"properties":{"BBL":"3082350340"}},{"type":"Feature","geometry":{"type":"Polygon","coordinates":[[[1014479.36045471,175556.119341889],[1014506.86080674,175524.570989875],[1014564.9074628,175457.979693816],[1014566.5230788,175456.126509792],[1014550.56935078,175442.353773801],[1014491.22240672,175512.260013869],[1014430.24487067,175584.086637923],[1014330.36448658,175497.862061843],[1014316.65715856,175514.008045869],[1014291.42759054,175492.227949848],[1014282.04352654,175503.281773852],[1014420.91571866,175623.167213964],[1014436.57927068,175605.197869944],[1014479.36045471,175556.119341889]]]},"properties":{"BBL":"3082350339"}},{"type":"Feature","geometry":{"type":"Polygon","coordinates":[[[1014491.22240672,175512.260013869],[1014366.11251861,175404.255341759],[1014291.42759054,175492.227949848],[1014316.65715856,175514.008045869],[1014330.36448658,175497.862061843],[1014430.24487067,175584.086637923],[1014491.22240672,175512.260013869]]]},"properties":{"BBL":"3082350341"}},{"type":"Feature","geometry":{"type":"Polygon","coordinates":[[[1017314.91380136,186832.8925364],[1017217.31047327,186813.638008386],[1017216.45024926,186818.1871924],[1017210.33792925,186816.981560409],[1017205.80807326,186840.926776415],[1017309.52340135,186861.387064431],[1017314.91380136,186832.8925364]]]},"properties":{"BBL":"3039580148"}},{"type":"Feature","geometry":{"type":"Polygon","coordinates":[[[1017326.30420136,186772.678968344],[1017231.83271328,186736.869816324],[1017217.31047327,186813.638008386],[1017314.91380136,186832.8925364],[1017326.30420136,186772.678968344]]]},"properties":{"BBL":"3039580048"}},{"type":"Feature","geometry":{"type":"Polygon","coordinates":[[[997433.217206838,200111.969092765],[997444.485750842,200091.300740754],[997387.089718794,200021.576580693],[997347.912630754,200053.330756711],[997418.461878833,200139.03315679],[997433.217206838,200111.969092765]]]},"properties":{"BBL":"3023150033"}},{"type":"Feature","geometry":{"type":"Polygon","coordinates":[[[993020.744690733,150007.784086108],[993003.547826706,149909.274134009],[992803.956914532,149943.128598051],[992821.153778536,150041.638742134],[993020.744690733,150007.784086108]]]},"properties":{"BBL":"3072740030"}}]}