{"type":"FeatureCollection","crs":{"type":"name","properties":{"name":"EPSG:2263"}},"features":[{"type":"Feature","geometry":{"type":"Polygon","coordinates":[[[1024675.51995221,245112.653422682],[1024583.54683212,245099.440494665],[1024575.31976012,245080.062574646],[1024567.03944012,245060.560494632],[1024563.62363211,245052.515182616],[1024457.21160002,245095.645550668],[1024552.7861281,245331.884654882],[1024565.07054412,245327.363438866],[1024569.85108811,245334.124910892],[1024578.25812813,245346.085998882],[1024583.05352012,245351.944302893],[1024586.82798413,245355.426926906],[1024589.66958413,245358.025070906],[1024593.17857613,245360.846446919],[1024593.19700814,245360.859502902],[1024598.00084814,245363.922286924],[1024605.37697615,245367.72286292],[1024609.80910415,245369.451374915],[1024617.68264015,245372.522606917],[1024622.43425615,245373.99511891],[1024636.86856017,245378.433390939],[1024653.48596819,245264.166766814],[1024675.51995221,245112.653422682]]]},"properties":{"BBL":"2039430199","LOT":199,"BLOCK":3943,"BORO":"2","Shape__Area":6620.76953125}},{"type":"Feature","geometry":{"type":"Polygon","coordinates":[[[1013760.07603805,241335.082283153],[1013760.06368605,241333.431915165],[1013759.98125404,241322.471531158],[1013759.92826204,241315.432299131],[1013759.79283804,241297.432683121],[1013759.74419804,241290.972267112],[1013759.65715805,241279.433323108],[1013759.51789405,241260.933739096],[1013759.49946204,241258.4733231],[1013759.32999005,241235.935083063],[1013722.01184601,241236.152171077],[1013702.33005399,241236.266603064],[1013683.24371797,241236.377707067],[1013658.24403795,241236.522859062],[1013658.38406995,241259.061099086],[1013658.58630995,241291.560555114],[1013658.78214995,241323.060331145],[1013658.86042195,241335.670955169],[1013760.07603805,241335.082283153]]]},"properties":{"BBL":"2029740030","LOT":30,"BLOCK":2974,"BORO":"2","Shape__Area":1629.015625}},{"type":"Feature","geometry":{"type":"Polygon","coordinates":[[[1023741.33140734,238885.827496893],[1023725.33780733,238976.225000954],[1023706.38766331,239083.332969072],[1024263.98510384,239182.884713154],[1024298.92910385,238985.379432968],[1023741.33140734,238885.827496893]]]},"properties":{"BBL":"2036720001","LOT":1,"BLOCK":3672,"BORO":"2","Shape__Area":18449.3828125}},{"type":"Feature","geometry":{"type":"Polygon","coordinates":[[[1010101.96141063,259042.892155647],[1010092.40608264,259025.322299624],[1010132.19590668,259003.637115617],[1010080.64275462,258908.844411531],[1010064.0767386,258917.872763526],[1010059.8312986,258910.066299529],[1010021.56371457,258987.615675607],[1010032.34221058,259007.43423561],[1009983.27577852,259034.174971652],[1010014.06790656,259090.793339692],[1010101.96141063,259042.892155647]]]},"properties":{"BBL":"2057000079","LOT":79,"BLOCK":5700,"BORO":"2","Shape__Area":2117.23046875}},{"type":"Feature","geometry":{"type":"Polygon","coordinates":[[[1010231.01075476,192908.879166066],[1010216.10624275,192888.820990043],[1010215.19379475,192887.593022027],[1010153.38208269,192804.442429962],[1010134.14829067,192778.577725929],[1010052.7789466,192839.741502],[1010061.5510426,192851.538238004],[1010072.01273861,192865.606206021],[1010073.34726662,192867.40102201],[1010085.48269063,192883.719998033],[1010096.80531464,192898.946110059],[1010109.67161864,192916.248126065],[1010121.23206665,192931.794238073],[1010133.83827466,192948.746302098],[1010090.11142662,192981.615166126],[1010052.40467459,193009.958462148],[1010065.7660826,193027.814718173],[1010069.57945861,193032.910910175],[1010108.11206664,193003.305534151],[1010231.01075476,192908.879166066]]]},"properties":{"BBL":"3034000068","LOT":68,"BLOCK":3400,"BORO":"3","Shape__Area":3145.80078125}},{"type":"Feature","geometry":{"type":"Polygon","coordinates":[[[998664.755831986,196037.77971296],[998562.07928789,196024.749888953],[998567.311607901,195983.75244893],[998540.193335863,195980.311168926],[998479.332279816,196025.074752956],[998514.392375847,196029.523904959],[998514.024375845,196032.40697696],[998530.492279861,196034.49676896],[998528.45362386,196050.467200988],[998511.985655851,196048.377408979],[998501.813367834,196128.080897056],[998496.605111822,196127.419969048],[998496.212663825,196130.494273067],[998483.535543811,196229.82355316],[998523.663287852,196234.915649157],[998637.748407967,196249.393217181],[998650.817783971,196146.989633084],[998664.755831986,196037.77971296]]]},"properties":{"BBL":"3030760018","LOT":18,"BLOCK":3076,"BORO":"3","Shape__Area":5609.33984375}},{"type":"Feature","geometry":{"type":"Polygon","coordinates":[[[995256.224436809,204310.005832671],[994941.672052516,204269.829128637],[994935.699892516,204269.06631265],[994538.271156135,204218.304072585],[994452.637364064,204207.366472584],[994419.020724029,204440.165000797],[994496.010420102,204449.998408803],[994539.394228148,204455.53978481],[994976.883892555,204511.589448861],[994977.292852555,204533.243080873],[995610.921589142,204615.787400956],[995643.016693181,204359.409352712],[995618.674101148,204356.300168731],[995329.164340871,204319.322184678],[995256.224436809,204310.005832671]]]},"properties":{"BBL":"3025670001","LOT":1,"BLOCK":2567,"BORO":"3","Shape__Area":48116.328125}},{"type":"Feature","geometry":{"type":"Polygon","coordinates":[[[1038047.03791667,193997.018431071],[1037998.50287661,193972.553151051],[1038042.64162866,193882.721214968],[1037931.41730855,193828.812862916],[1037844.89494047,194012.222015073],[1038003.51945262,194089.268287164],[1038047.03791667,193997.018431071]]]},"properties":{"BBL":"4099990001","LOT":1,"BLOCK":9999,"BORO":"4","Shape__Area":4917.08203125}},{"type":"Feature","geometry":{"type":"Polygon","coordinates":[[[1025654.23956912,243437.678893113],[1025517.03278499,243418.318893108],[1025504.44718498,243482.508653166],[1025641.65396912,243501.868653178],[1025654.23956912,243437.678893113]]]},"properties":{"BBL":"2039630057","LOT":57,"BLOCK":3963,"BORO":"2","Shape__Area":1470.375}},{"type":"Feature","geometry":{"type":"Polygon","coordinates":[[[1013760.20397405,241351.970667187],[1013760.07603805,241335.082283153],[1013658.86042195,241335.670955169],[1013658.96544596,241352.559467189],[1013760.20397405,241351.970667187]]]},"properties":{"BBL":"2029740134","LOT":134,"BLOCK":2974,"BORO":"2","Shape__Area":277.6953125}},{"type":"Feature","geometry":{"type":"Polygon","coordinates":[[[998231.219703591,194384.443071446],[998113.349559469,194284.554815335],[998077.146039448,194518.705471569],[998100.422519465,194538.549631589],[998231.219703591,194384.443071446]]]},"properties":{"BBL":"3022650022","LOT":22,"BLOCK":2265,"BORO":"3","Shape__Area":3025.57421875}},{"type":"Feature","geometry":{"type":"Polygon","coordinates":[[[1024556.74305609,240754.584554631],[1024556.27182409,240757.350250605],[1024539.15003208,240857.827178714],[1024740.10708827,240894.360938755],[1024757.84264029,240790.281322656],[1024556.74305609,240754.584554631]]]},"properties":{"BBL":"2037970033","LOT":33,"BLOCK":3797,"BORO":"2","Shape__Area":3488.2578125}},{"type":"Feature","geometry":{"type":"Polygon","coordinates":[[[1023741.33140734,238885.827496893],[1023517.26535914,238845.823336842],[1023501.27150311,238936.221480929],[1023607.89044722,238955.256296953],[1023725.33780733,238976.225000954],[1023741.33140734,238885.827496893]]]},"properties":{"BBL":"2036720020","LOT":20,"BLOCK":3672,"BORO":"2","Shape__Area":3393.21484375}}]}