{"type":"FeatureCollection","crs":{"type":"name","properties":{"name":"EPSG:2263"}},"features":[{"type":"Feature","geometry":{"type":"Polygon","coordinates":[[[1010195.19251472,259108.280187711],[1010147.04377867,259019.747195629],[1010142.34873867,259022.305915628],[1010132.19590668,259003.637115617],[1010092.40608264,259025.322299624],[1010101.96141063,259042.892155647],[1010114.01389064,259065.053563664],[1010150.70790668,259132.52415572],[1010195.19251472,259108.280187711]]]},"properties":{"BBL":"2057000088","LOT":88,"BLOCK":5700,"BORO":"2","Shape__Area":987.16015625}}]}